IRIDIUM 126             
1 42809U 17039G   23248.45855539  .00000103  00000+0  29830-4 0  9995
2 42809  86.3935  58.1191 0002325  94.5481 265.5981 14.34217778324365
IRIDIUM 124             
1 42810U 17039H   23248.28625402  .00000531  00000+0  15199-3 0  9999
2 42810  86.4553 354.9576 0002148  90.4737 269.6710 14.43274871328580
IRIDIUM 128             
1 42811U 17039J   23248.51906201  .00000074  00000+0  19508-4 0  9996
2 42811  86.3914  89.6474 0002293  88.1676 271.9782 14.34212862324401
IRIDIUM 121             
1 42812U 17039K   23248.40781219  .00000110  00000+0  32271-4 0  9998
2 42812  86.3934  58.1615 0002156  91.7643 268.3800 14.34216576324232
IRIDIUM 133             
1 42955U 17061A   23248.55078103  .00000102  00000+0  29412-4 0  9992
2 42955  86.3916  89.7272 0002300  91.9015 268.2444 14.34218307309202
IRIDIUM 100             
1 42956U 17061B   23248.54442742  .00000114  00000+0  33680-4 0  9991
2 42956  86.3913  89.6724 0002241  89.7959 270.3494 14.34219352309207
IRIDIUM 122             
1 42957U 17061C   23248.51272148  .00000055  00000+0  12631-4 0  9997
2 42957  86.3913  89.6832 0002327  87.4879 272.6583 14.34216691309206
IRIDIUM 129             
1 42958U 17061D   23248.53809225  .00000057  00000+0  13324-4 0  9994
2 42958  86.3916  89.7292 0002280  89.4066 270.7391 14.34215900309229
